0 THOR ABLESTAR DEB
1 05715U 61015JS  13283.70813569  .00000219  00000-0  36489-3 0  7877
2 05715 066.5754 150.5625 0169378 056.4569 004.0673 13.58265352571683
0 THOR ABLESTAR DEB
1 05715U 61015JS  13285.77311229  .00000182  00000-0  31844-3 0  7882
2 05715 066.5750 145.7455 0169592 055.1996 021.2762 13.58266562571969
0 THOR ABLESTAR DEB
1 05715U 61015JS  13288.05567252  .00000283  00000-0  44489-3 0  7897
2 05715 066.5745 140.4210 0169738 053.7988 022.4401 13.58268956572278
0 THOR ABLESTAR DEB
1 05715U 61015JS  13290.70626603  .00000400  00000-0  59180-3 0  7905
2 05715 066.5745 134.2380 0169862 052.1488 023.2550 13.58273622572633
0 THOR ABLESTAR DEB
1 05715U 61015JS  13293.00459501  .00000525  00000-0  74835-3 0  7915
2 05715 066.5749 128.8776 0169972 050.7228 101.6046 13.58276610572948
0 THOR ABLESTAR DEB
1 05715U 61015JS  13295.86886257  .00000595  00000-0  83489-3 0  7926
2 05715 066.5750 122.1960 0169993 048.9088 067.3438 13.58279917573338
